RAY 1.0                 
1 62627U 25009U   26068.84026028  .00005065  00000+0  23775-3 0  9993
2 62627  97.4036 148.9866 0007290 261.8547  98.1862 15.20062713 63580
PIAST-S2                
1 66757U 25276CV  26068.70828139  .00007255  00000+0  34654-3 0  9996
2 66757  97.4284 144.0754 0000536   4.7699 355.3541 15.19329841 15321
