[{"OBJECT_NAME":"RAY 1.0","OBJECT_ID":"2025-009U","EPOCH":"2026-03-09T20:09:58.488192","MEAN_MOTION":15.20062713,"ECCENTRICITY":0.00072905,"INCLINATION":97.4036,"RA_OF_ASC_NODE":148.9866,"ARG_OF_PERICENTER":261.8547,"MEAN_ANOMALY":98.1862,"EPHEMERIS_TYPE":0,"CLASSIFICATION_TYPE":"U","NORAD_CAT_ID":62627,"ELEMENT_SET_NO":999,"REV_AT_EPOCH":6358,"BSTAR":0.00023774962,"MEAN_MOTION_DOT":5.065e-5,"MEAN_MOTION_DDOT":0},{"OBJECT_NAME":"PIAST-S2","OBJECT_ID":"2025-276CV","EPOCH":"2026-03-09T16:59:55.512096","MEAN_MOTION":15.19329841,"ECCENTRICITY":5.362e-5,"INCLINATION":97.4284,"RA_OF_ASC_NODE":144.0754,"ARG_OF_PERICENTER":4.7699,"MEAN_ANOMALY":355.3541,"EPHEMERIS_TYPE":0,"CLASSIFICATION_TYPE":"U","NORAD_CAT_ID":66757,"ELEMENT_SET_NO":999,"REV_AT_EPOCH":1532,"BSTAR":0.00034653678,"MEAN_MOTION_DOT":7.255e-5,"MEAN_MOTION_DDOT":0}]
